{
  "norad_id": 63067,
  "name": "STARLINK-33628",
  "history": [
    {
      "epoch": "2026-03-28T13:29:45.925440Z",
      "apogee_km": 483.9236566715226,
      "perigee_km": 482.0642901777237,
      "latitude_deg": -2.0857886789190833e-05,
      "longitude_deg": 12.282421222435454,
      "height_km": 482.7640828859638,
      "semi_major_axis_km": 6861.130973424622,
      "eccentricity": 0.0001355,
      "inclination_deg": 42.9982,
      "raan_deg": 40.7048,
      "arg_perigee_deg": 270.3917,
      "mean_anomaly_deg": 89.6779,
      "mean_motion_rev_day": 15.27598409
    },
    {
      "epoch": "2026-03-29T05:11:19.078656Z",
      "apogee_km": 483.9517586838956,
      "perigee_km": 481.9291130558022,
      "latitude_deg": -3.648715927810541e-05,
      "longitude_deg": 132.5592962757058,
      "height_km": 482.8994860010502,
      "semi_major_axis_km": 6861.077435869849,
      "eccentricity": 0.0001474,
      "inclination_deg": 43.0022,
      "raan_deg": 37.0143,
      "arg_perigee_deg": 259.6274,
      "mean_anomaly_deg": 100.4411,
      "mean_motion_rev_day": 15.27616289
    },
    {
      "epoch": "2026-03-30T04:43:39.739008Z",
      "apogee_km": 484.0531310852484,
      "perigee_km": 481.93578591715504,
      "latitude_deg": 6.482065136942994e-05,
      "longitude_deg": 132.9650047891456,
      "height_km": 482.71104755022185,
      "semi_major_axis_km": 6861.131458501201,
      "eccentricity": 0.0001543,
      "inclination_deg": 42.9996,
      "raan_deg": 31.4727,
      "arg_perigee_deg": 273.2589,
      "mean_anomaly_deg": 86.8087,
      "mean_motion_rev_day": 15.27598247
    },
    {
      "epoch": "2026-03-30T04:43:39.739872Z",
      "apogee_km": 484.053062473934,
      "perigee_km": 481.93585452846946,
      "latitude_deg": 6.403567097619982e-05,
      "longitude_deg": 132.96500034214264,
      "height_km": 482.71105144991503,
      "semi_major_axis_km": 6861.131458501201,
      "eccentricity": 0.00015429,
      "inclination_deg": 42.9996,
      "raan_deg": 31.4727,
      "arg_perigee_deg": 273.2589,
      "mean_anomaly_deg": 86.8087,
      "mean_motion_rev_day": 15.27598247
    },
    {
      "epoch": "2026-03-30T20:25:14.707488Z",
      "apogee_km": 483.4131834755226,
      "perigee_km": 482.64898657421236,
      "latitude_deg": -2.3172999027514012e-05,
      "longitude_deg": -106.76828083470106,
      "height_km": 482.7400845908822,
      "semi_major_axis_km": 6861.168085024868,
      "eccentricity": 5.569e-05,
      "inclination_deg": 42.9916,
      "raan_deg": 27.7797,
      "arg_perigee_deg": 80.2202,
      "mean_anomaly_deg": 279.8712,
      "mean_motion_rev_day": 15.27586015
    },
    {
      "epoch": "2026-03-31T12:06:48.848256Z",
      "apogee_km": 483.7245025926959,
      "perigee_km": 482.30877215115925,
      "latitude_deg": -3.817157799512575e-06,
      "longitude_deg": 13.50320640668832,
      "height_km": 482.98950460674905,
      "semi_major_axis_km": 6861.153637371927,
      "eccentricity": 0.00010317,
      "inclination_deg": 42.9993,
      "raan_deg": 24.0879,
      "arg_perigee_deg": 253.873,
      "mean_anomaly_deg": 106.2008,
      "mean_motion_rev_day": 15.2759084
    },
    {
      "epoch": "2026-04-01T11:39:09.633024Z",
      "apogee_km": 483.7043388480233,
      "perigee_km": 482.3362240860988,
      "latitude_deg": -5.3155668872692735e-05,
      "longitude_deg": 13.913335110512145,
      "height_km": 482.9046249096249,
      "semi_major_axis_km": 6861.157281467061,
      "eccentricity": 9.97e-05,
      "inclination_deg": 42.9976,
      "raan_deg": 18.5514,
      "arg_perigee_deg": 260.8927,
      "mean_anomaly_deg": 99.1811,
      "mean_motion_rev_day": 15.27589623
    },
    {
      "epoch": "2026-04-02T11:11:30.266592Z",
      "apogee_km": 483.5318033757212,
      "perigee_km": 482.48781127751863,
      "latitude_deg": 1.14433232064137e-05,
      "longitude_deg": 14.319516722364853,
      "height_km": 482.6407653524516,
      "semi_major_axis_km": 6861.14680732662,
      "eccentricity": 7.608e-05,
      "inclination_deg": 43.0002,
      "raan_deg": 13.0102,
      "arg_perigee_deg": 286.1505,
      "mean_anomaly_deg": 73.9263,
      "mean_motion_rev_day": 15.27593121
    },
    {
      "epoch": "2026-04-03T18:34:38.033184Z",
      "apogee_km": 484.02928485850134,
      "perigee_km": 482.276911367444,
      "latitude_deg": 3.033834346157202e-06,
      "longitude_deg": -105.13470903336895,
      "height_km": 482.05182094437305,
      "semi_major_axis_km": 6861.290098112972,
      "eccentricity": 0.0001277,
      "inclination_deg": 42.9932,
      "raan_deg": 5.6273,
      "arg_perigee_deg": 359.0868,
      "mean_anomaly_deg": 0.9981,
      "mean_motion_rev_day": 15.27545268
    },
    {
      "epoch": "2026-04-04T03:59:35.030688Z",
      "apogee_km": 483.9865865022557,
      "perigee_km": 482.26893748173916,
      "latitude_deg": -1.2802532797059505e-05,
      "longitude_deg": 111.02508979564752,
      "height_km": 482.3930343652152,
      "semi_major_axis_km": 6861.264761991997,
      "eccentricity": 0.00012517,
      "inclination_deg": 42.9988,
      "raan_deg": 3.4113,
      "arg_perigee_deg": 306.5155,
      "mean_anomaly_deg": 53.5581,
      "mean_motion_rev_day": 15.27553729
    },
    {
      "epoch": "2026-04-05T09:48:33.662016Z",
      "apogee_km": 484.2873035887178,
      "perigee_km": 481.8316813640604,
      "latitude_deg": 2.8020608412294503e-05,
      "longitude_deg": 15.540523231747459,
      "height_km": 482.8099757928125,
      "semi_major_axis_km": 6861.196492476389,
      "eccentricity": 0.00017895,
      "inclination_deg": 43.001,
      "raan_deg": 356.3955,
      "arg_perigee_deg": 271.2434,
      "mean_anomaly_deg": 88.8213,
      "mean_motion_rev_day": 15.27576528
    },
    {
      "epoch": "2026-04-06T01:30:06.790176Z",
      "apogee_km": 483.99046144181193,
      "perigee_km": 481.8598272035142,
      "latitude_deg": 2.514456295459356e-05,
      "longitude_deg": 135.81491541305962,
      "height_km": 482.5923988429517,
      "semi_major_axis_km": 6861.062144322663,
      "eccentricity": 0.00015527,
      "inclination_deg": 43.0015,
      "raan_deg": 352.7024,
      "arg_perigee_deg": 275.9127,
      "mean_anomaly_deg": 84.1548,
      "mean_motion_rev_day": 15.27621396
    }
  ]
}